[
  {
    "OBJECT_NAME": "WORLDVIEW-3 (WV-3)",
    "OBJECT_ID": "2014-048A",
    "EPOCH": "2025-06-21T13:13:05.563776",
    "MEAN_MOTION": 14.8499099,
    "ECCENTRICITY": 0.0006271,
    "INCLINATION": 97.8777,
    "RA_OF_ASC_NODE": 246.9071,
    "ARG_OF_PERICENTER": 60.0647,
    "MEAN_ANOMALY": 300.1189,
    "EPHEMERIS_TYPE": 0,
    "CLASSIFICATION_TYPE": "U",
    "NORAD_CAT_ID": 40115,
    "ELEMENT_SET_NO": 999,
    "REV_AT_EPOCH": 58838,
    "BSTAR": 8.2684e-05,
    "MEAN_MOTION_DOT": 6.51e-06,
    "MEAN_MOTION_DDOT": 0
  },
  {
    "OBJECT_NAME": "GAOFEN-2",
    "OBJECT_ID": "2014-049A",
    "EPOCH": "2025-06-21T19:57:01.668384",
    "MEAN_MOTION": 14.80537421,
    "ECCENTRICITY": 0.0003617,
    "INCLINATION": 98.0592,
    "RA_OF_ASC_NODE": 231.4827,
    "ARG_OF_PERICENTER": 324.6596,
    "MEAN_ANOMALY": 35.4375,
    "EPHEMERIS_TYPE": 0,
    "CLASSIFICATION_TYPE": "U",
    "NORAD_CAT_ID": 40118,
    "ELEMENT_SET_NO": 999,
    "REV_AT_EPOCH": 58592,
    "BSTAR": 9.4812e-05,
    "MEAN_MOTION_DOT": 6.73e-06,
    "MEAN_MOTION_DDOT": 0
  },
  {
    "OBJECT_NAME": "YAOGAN-21",
    "OBJECT_ID": "2014-053A",
    "EPOCH": "2025-06-21T20:22:57.556992",
    "MEAN_MOTION": 15.23852557,
    "ECCENTRICITY": 0.00104,
    "INCLINATION": 97.199,
    "RA_OF_ASC_NODE": 223.3883,
    "ARG_OF_PERICENTER": 334.6289,
    "MEAN_ANOMALY": 25.4437,
    "EPHEMERIS_TYPE": 0,
    "CLASSIFICATION_TYPE": "U",
    "NORAD_CAT_ID": 40143,
    "ELEMENT_SET_NO": 999,
    "REV_AT_EPOCH": 60010,
    "BSTAR": 0.0002116,
    "MEAN_MOTION_DOT": 5.041e-05,
    "MEAN_MOTION_DDOT": 0
  },
  {
    "OBJECT_NAME": "YAOGAN-22",
    "OBJECT_ID": "2014-063A",
    "EPOCH": "2025-06-21T15:00:19.478880",
    "MEAN_MOTION": 13.15512266,
    "ECCENTRICITY": 0.0005741,
    "INCLINATION": 100.7182,
    "RA_OF_ASC_NODE": 313.7988,
    "ARG_OF_PERICENTER": 282.5293,
    "MEAN_ANOMALY": 77.5176,
    "EPHEMERIS_TYPE": 0,
    "CLASSIFICATION_TYPE": "U",
    "NORAD_CAT_ID": 40275,
    "ELEMENT_SET_NO": 999,
    "REV_AT_EPOCH": 51240,
    "BSTAR": 4.6896e-05,
    "MEAN_MOTION_DOT": -2.9e-07,
    "MEAN_MOTION_DDOT": 0
  },
  {
    "OBJECT_NAME": "ASNARO",
    "OBJECT_ID": "2014-070A",
    "EPOCH": "2025-06-21T19:53:33.534240",
    "MEAN_MOTION": 15.19396477,
    "ECCENTRICITY": 0.0002524,
    "INCLINATION": 97.3794,
    "RA_OF_ASC_NODE": 252.8423,
    "ARG_OF_PERICENTER": 344.825,
    "MEAN_ANOMALY": 15.2908,
    "EPHEMERIS_TYPE": 0,
    "CLASSIFICATION_TYPE": "U",
    "NORAD_CAT_ID": 40298,
    "ELEMENT_SET_NO": 999,
    "REV_AT_EPOCH": 58930,
    "BSTAR": 0.00034131,
    "MEAN_MOTION_DOT": 7.159e-05,
    "MEAN_MOTION_DDOT": 0
  },
  {
    "OBJECT_NAME": "YAOGAN-24",
    "OBJECT_ID": "2014-072A",
    "EPOCH": "2025-06-21T19:29:46.722912",
    "MEAN_MOTION": 14.76220428,
    "ECCENTRICITY": 0.0013717,
    "INCLINATION": 98.1008,
    "RA_OF_ASC_NODE": 303.2236,
    "ARG_OF_PERICENTER": 349.0385,
    "MEAN_ANOMALY": 11.0523,
    "EPHEMERIS_TYPE": 0,
    "CLASSIFICATION_TYPE": "U",
    "NORAD_CAT_ID": 40310,
    "ELEMENT_SET_NO": 999,
    "REV_AT_EPOCH": 57057,
    "BSTAR": 8.0504e-05,
    "MEAN_MOTION_DOT": 5.05e-06,
    "MEAN_MOTION_DDOT": 0
  },
  {
    "OBJECT_NAME": "CBERS 4",
    "OBJECT_ID": "2014-079A",
    "EPOCH": "2025-06-21T19:40:44.942304",
    "MEAN_MOTION": 14.355127,
    "ECCENTRICITY": 8.82e-05,
    "INCLINATION": 98.3529,
    "RA_OF_ASC_NODE": 236.5254,
    "ARG_OF_PERICENTER": 56.3556,
    "MEAN_ANOMALY": 303.7714,
    "EPHEMERIS_TYPE": 0,
    "CLASSIFICATION_TYPE": "U",
    "NORAD_CAT_ID": 40336,
    "ELEMENT_SET_NO": 999,
    "REV_AT_EPOCH": 55227,
    "BSTAR": 4.4483e-05,
    "MEAN_MOTION_DOT": 8.6e-07,
    "MEAN_MOTION_DDOT": 0
  },
  {
    "OBJECT_NAME": "YAOGAN-26",
    "OBJECT_ID": "2014-088A",
    "EPOCH": "2025-06-21T19:31:07.683168",
    "MEAN_MOTION": 15.32982944,
    "ECCENTRICITY": 0.0003572,
    "INCLINATION": 97.0634,
    "RA_OF_ASC_NODE": 180.564,
    "ARG_OF_PERICENTER": 273.9975,
    "MEAN_ANOMALY": 86.0859,
    "EPHEMERIS_TYPE": 0,
    "CLASSIFICATION_TYPE": "U",
    "NORAD_CAT_ID": 40362,
    "ELEMENT_SET_NO": 999,
    "REV_AT_EPOCH": 58370,
    "BSTAR": 0.00029485,
    "MEAN_MOTION_DOT": 9.323e-05,
    "MEAN_MOTION_DDOT": 0
  },
  {
    "OBJECT_NAME": "SMAP",
    "OBJECT_ID": "2015-003A",
    "EPOCH": "2025-06-21T12:46:00.384096",
    "MEAN_MOTION": 14.63323695,
    "ECCENTRICITY": 0.0001344,
    "INCLINATION": 98.1272,
    "RA_OF_ASC_NODE": 179.7099,
    "ARG_OF_PERICENTER": 89.4313,
    "MEAN_ANOMALY": 270.7043,
    "EPHEMERIS_TYPE": 0,
    "CLASSIFICATION_TYPE": "U",
    "NORAD_CAT_ID": 40376,
    "ELEMENT_SET_NO": 999,
    "REV_AT_EPOCH": 55487,
    "BSTAR": 7.5667e-05,
    "MEAN_MOTION_DOT": 3.44e-06,
    "MEAN_MOTION_DDOT": 0
  },
  {
    "OBJECT_NAME": "KOMPSAT-3A",
    "OBJECT_ID": "2015-014A",
    "EPOCH": "2025-06-21T20:47:45.438432",
    "MEAN_MOTION": 15.37179991,
    "ECCENTRICITY": 0.0005642,
    "INCLINATION": 97.6559,
    "RA_OF_ASC_NODE": 138.9437,
    "ARG_OF_PERICENTER": 66.1749,
    "MEAN_ANOMALY": 294.0086,
    "EPHEMERIS_TYPE": 0,
    "CLASSIFICATION_TYPE": "U",
    "NORAD_CAT_ID": 40536,
    "ELEMENT_SET_NO": 999,
    "REV_AT_EPOCH": 56621,
    "BSTAR": 0.00028758,
    "MEAN_MOTION_DOT": 0.0001039,
    "MEAN_MOTION_DDOT": 0
  },
  {
    "OBJECT_NAME": "SENTINEL-2A",
    "OBJECT_ID": "2015-028A",
    "EPOCH": "2025-06-21T19:04:55.667136",
    "MEAN_MOTION": 14.30810912,
    "ECCENTRICITY": 0.0001254,
    "INCLINATION": 98.5693,
    "RA_OF_ASC_NODE": 247.8132,
    "ARG_OF_PERICENTER": 93.1521,
    "MEAN_ANOMALY": 266.9806,
    "EPHEMERIS_TYPE": 0,
    "CLASSIFICATION_TYPE": "U",
    "NORAD_CAT_ID": 40697,
    "ELEMENT_SET_NO": 999,
    "REV_AT_EPOCH": 52219,
    "BSTAR": 4.6922e-05,
    "MEAN_MOTION_DOT": 7.9e-07,
    "MEAN_MOTION_DDOT": 0
  },
  {
    "OBJECT_NAME": "GAOFEN-8",
    "OBJECT_ID": "2015-030A",
    "EPOCH": "2025-06-21T20:24:50.939712",
    "MEAN_MOTION": 15.3248897,
    "ECCENTRICITY": 0.0012923,
    "INCLINATION": 97.6891,
    "RA_OF_ASC_NODE": 343.4911,
    "ARG_OF_PERICENTER": 44.3054,
    "MEAN_ANOMALY": 315.9219,
    "EPHEMERIS_TYPE": 0,
    "CLASSIFICATION_TYPE": "U",
    "NORAD_CAT_ID": 40701,
    "ELEMENT_SET_NO": 999,
    "REV_AT_EPOCH": 55603,
    "BSTAR": 0.00034874,
    "MEAN_MOTION_DOT": 0.00010889,
    "MEAN_MOTION_DDOT": 0
  },
  {
    "OBJECT_NAME": "CARBONITE 1 (CBNT-1)",
    "OBJECT_ID": "2015-032D",
    "EPOCH": "2025-06-21T19:32:16.314144",
    "MEAN_MOTION": 14.81819898,
    "ECCENTRICITY": 0.0015855,
    "INCLINATION": 97.6438,
    "RA_OF_ASC_NODE": 1.6266,
    "ARG_OF_PERICENTER": 41.135,
    "MEAN_ANOMALY": 319.1056,
    "EPHEMERIS_TYPE": 0,
    "CLASSIFICATION_TYPE": "U",
    "NORAD_CAT_ID": 40718,
    "ELEMENT_SET_NO": 999,
    "REV_AT_EPOCH": 53594,
    "BSTAR": 0.00016347,
    "MEAN_MOTION_DOT": 1.244e-05,
    "MEAN_MOTION_DDOT": 0
  },
  {
    "OBJECT_NAME": "YAOGAN-27",
    "OBJECT_ID": "2015-040A",
    "EPOCH": "2025-06-21T20:08:42.152928",
    "MEAN_MOTION": 13.16049976,
    "ECCENTRICITY": 0.0007874,
    "INCLINATION": 100.0865,
    "RA_OF_ASC_NODE": 170.3919,
    "ARG_OF_PERICENTER": 331.5742,
    "MEAN_ANOMALY": 28.4941,
    "EPHEMERIS_TYPE": 0,
    "CLASSIFICATION_TYPE": "U",
    "NORAD_CAT_ID": 40878,
    "ELEMENT_SET_NO": 999,
    "REV_AT_EPOCH": 47176,
    "BSTAR": 2.4022e-05,
    "MEAN_MOTION_DOT": -3.3e-07,
    "MEAN_MOTION_DDOT": 0
  }
]