WORLDVIEW-3 (WV-3)      
1 40115U 14048A   25172.55075884  .00000651  00000+0  82684-4 0  9990
2 40115  97.8777 246.9071 0006271  60.0647 300.1189 14.84990990588383
GAOFEN-2                
1 40118U 14049A   25172.83126931  .00000673  00000+0  94812-4 0  9995
2 40118  98.0592 231.4827 0003617 324.6596  35.4375 14.80537421585929
YAOGAN-21               
1 40143U 14053A   25172.84927728  .00005041  00000+0  21160-3 0  9991
2 40143  97.1990 223.3883 0010400 334.6289  25.4437 15.23852557600103
YAOGAN-22               
1 40275U 14063A   25172.62522545 -.00000029  00000+0  46896-4 0  9998
2 40275 100.7182 313.7988 0005741 282.5293  77.5176 13.15512266512403
ASNARO                  
1 40298U 14070A   25172.82886035  .00007159  00000+0  34131-3 0  9998
2 40298  97.3794 252.8423 0002524 344.8250  15.2908 15.19396477589301
YAOGAN-24               
1 40310U 14072A   25172.81234633  .00000505  00000+0  80504-4 0  9999
2 40310  98.1008 303.2236 0013717 349.0385  11.0523 14.76220428570578
CBERS 4                 
1 40336U 14079A   25172.81996461  .00000086  00000+0  44483-4 0  9998
2 40336  98.3529 236.5254 0000882  56.3556 303.7714 14.35512700552273
YAOGAN-26               
1 40362U 14088A   25172.81328337  .00009323  00000+0  29485-3 0  9995
2 40362  97.0634 180.5640 0003572 273.9975  86.0859 15.32982944583705
SMAP                    
1 40376U 15003A   25172.53194889  .00000344  00000+0  75667-4 0  9998
2 40376  98.1272 179.7099 0001344  89.4313 270.7043 14.63323695554877
KOMPSAT-3A              
1 40536U 15014A   25172.86649813  .00010390  00000+0  28758-3 0  9996
2 40536  97.6559 138.9437 0005642  66.1749 294.0086 15.37179991566217
SENTINEL-2A             
1 40697U 15028A   25172.79508874  .00000079  00000+0  46922-4 0  9999
2 40697  98.5693 247.8132 0001254  93.1521 266.9806 14.30810912522193
GAOFEN-8                
1 40701U 15030A   25172.85058958  .00010889  00000+0  34874-3 0  9990
2 40701  97.6891 343.4911 0012923  44.3054 315.9219 15.32488970556032
CARBONITE 1 (CBNT-1)    
1 40718U 15032D   25172.81407771  .00001244  00000+0  16347-3 0  9997
2 40718  97.6438   1.6266 0015855  41.1350 319.1056 14.81819898535946
YAOGAN-27               
1 40878U 15040A   25172.83937677 -.00000033  00000+0  24022-4 0  9994
2 40878 100.0865 170.3919 0007874 331.5742  28.4941 13.16049976471769
